STARLINK-5030           
1 55418U 23014AD  24115.94549042  .00001461  00000+0  13023-3 0  9996
2 55418  70.0024   8.4335 0002743 248.2375 111.8493 14.98321215 69141
STARLINK-5629           
1 55419U 23014AE  24115.93296354  .00001833  00000+0  16140-3 0  9997
2 55419  70.0035   8.3948 0002921 220.9038 139.1902 14.98326777 69140
STARLINK-5604           
1 55420U 23014AF  24115.90330330 -.00004286  00000+0 -35164-3 0  9993
2 55420  70.0007 328.5512 0002563 257.2600 102.8273 14.98332931 70122
STARLINK-5598           
1 55421U 23014AG  24115.94131167  .00000417  00000+0  42751-4 0  9996
2 55421  70.0017   8.4173 0002315 257.5626 102.5274 14.98325838 69143
STARLINK-5006           
1 55422U 23014AH  24115.85368184  .00001812  00000+0  15961-3 0  9990
2 55422  70.0033   8.5115 0002765 267.0095  93.0748 14.98332505 68197
STARLINK-5068           
1 55423U 23014AJ  24115.89124473 -.00001356  00000+0 -10584-3 0  9997
2 55423  70.0018   8.6467 0002591 243.7791 116.3102 14.98331001 68196
STARLINK-5615           
1 55425U 23014AL  24116.08318163 -.00002218  00000+0 -17817-3 0  9996
2 55425  70.0037   8.1096 0002285 254.8455 105.2451 14.98333637 68227
STARLINK-5638           
1 55426U 23014AM  24115.89959663  .00000832  00000+0  77490-4 0  9993
2 55426  70.0021   8.6776 0002704 242.7349 117.3534 14.98328442 69130
STARLINK-5073           
1 55427U 23014AN  24115.88707214  .00001143  00000+0  10360-3 0  9994
2 55427  70.0033   8.6364 0002942 225.9072 134.1845 14.98324844 68196
STARLINK-5064           
1 55428U 23014AP  24115.90794468 -.00000817  00000+0 -60663-4 0  9996
2 55428  70.0013   8.7052 0002424 248.9839 111.1061 14.98331900 69132
STARLINK-5645           
1 55429U 23014AQ  24115.89542252  .00000553  00000+0  54122-4 0  9995
2 55429  70.0032   8.6640 0002742 215.4464 144.6513 14.98324961 69134
STARLINK-5642           
1 55430U 23014AR  24115.88729473  .00009678  00000+0  81745-3 0  9995
2 55430  70.0042  28.4933 0003330 264.1131  95.9649 14.98344096 67708
STARLINK-5643           
1 55431U 23014AS  24115.90377580  .00001235  00000+0  11125-3 0  9993
2 55431  70.0046   8.6949 0002221 254.3862 105.7052 14.98330719 69134
STARLINK-5637           
1 55432U 23014AT  24115.89146780 -.00000663  00000+0 -47810-4 0  9995
2 55432  70.0042  28.5080 0002890 262.5688  97.5142 14.98328352 67706
STARLINK-5570           
1 55433U 23014AU  24116.15016245  .00000588  00000+0  57093-4 0  9996
2 55433  70.0022  27.8037 0003057 263.0892  96.9920 14.98331852 67748
STARLINK-5621           
1 55434U 23014AV  24115.90399472  .00003766  00000+0  32318-3 0  9998
2 55434  70.0040  28.5530 0002553 264.0031  96.0837 14.98333597 68647
STARLINK-5626           
1 55435U 23014AW  24115.89564651  .00007155  00000+0  60658-3 0  9994
2 55435  70.0029  28.5228 0002821 252.4431 107.6420 14.98347504 68642
STARLINK-5640           
1 55436U 23014AX  24115.90816874  .00001840  00000+0  16194-3 0  9995
2 55436  70.0045  28.5705 0002269 254.3023 105.7886 14.98338131 68646
STARLINK-5080           
1 55437U 23014AY  24115.90584731  .00103451  00000+0  42315-2 0  9994
2 55437  69.9957  14.1219 0009594 202.7504 157.3244 15.23756876 69007
STARLINK-5074           
1 55438U 23014AZ  24116.09127451  .00000339  00000+0  36217-4 0  9995
2 55438  70.0016 347.8839 0002708 241.2243 118.8644 14.98329114 68725
STARLINK-5634           
1 55439U 23014BA  24115.91234386  .00001272  00000+0  11435-3 0  9993
2 55439  70.0010  28.5809 0002684 269.9209  90.1643 14.98325677 68644
STARLINK-5699           
1 55449U 23015A   24115.92975432  .00007454  00000+0  56634-3 0  9998
2 55449  43.0003  81.7904 0000805 260.6852  99.3899 15.02531639 67892
STARLINK-5686           
1 55450U 23015B   24115.93306925  .00008347  00000+0  63191-3 0  9994
2 55450  43.0029  81.8171 0001407 266.5038  93.5643 15.02554814 68837
STARLINK-5656           
1 55451U 23015C   24115.92641086  .00001922  00000+0  15733-3 0  9995
2 55451  43.0035  81.7649 0001658 264.1496  95.9157 15.02539963 67893
STARLINK-5683           
1 55452U 23015D   24115.98845549  .00003354  00000+0  26319-3 0  9995
2 55452  43.0013  81.3689 0001409 263.5737  96.4944 15.02541512 67900
STARLINK-5684           
1 55453U 23015E   24115.98512668  .00017687  00000+0  13206-2 0  9993
2 55453  43.0032  81.3462 0001657 266.7980  93.2672 15.02548798 67907
STARLINK-5636           
1 55454U 23015F   24115.97846984  .00001233  00000+0  10630-3 0  9993
2 55454  43.0031  81.2870 0001143 252.4783 107.5934 15.02534897 67907
STARLINK-5680           
1 55455U 23015G   24115.92530364  .00002334  00000+0  18773-3 0  9990
2 55455  43.0035  81.7573 0001798 264.3863  95.6775 15.02545346 67893
STARLINK-5058           
1 55456U 23015H   24115.97957190  .00002785  00000+0  22117-3 0  9993
2 55456  43.0036  81.3024 0001496 255.8043 104.2633 15.02533980 67725
STARLINK-5682           
1 55457U 23015J   24115.98180005  .00000936  00000+0  84354-4 0  9996
2 55457  43.0048  81.3213 0001446 244.8728 115.1964 15.02532890 67909
STARLINK-5020           
1 55458U 23015K   24116.16790962  .00013400  00000+0  10048-2 0  9994
2 55458  43.0030  80.1355 0001470 261.4408  98.6267 15.02547578 67935
STARLINK-5669           
1 55459U 23015L   24116.17235338  .00000128  00000+0  24583-4 0  9991
2 55459  43.0032  80.1698 0001244 259.2228 100.8474 15.02531460 67931
STARLINK-5678           
1 55460U 23015M   24116.16901791 -.00006539  00000+0 -46954-3 0  9994
2 55460  43.0032  80.1444 0001481 272.7582  87.3091 15.02527977 67930
STARLINK-5646           
1 55461U 23015N   24115.90976811  .00006756  00000+0  51462-3 0  9990
2 55461  43.0026  81.6387 0001388 265.6029  94.4655 15.02545067 67899
STARLINK-5673           
1 55462U 23015P   24116.15791964  .00001150  00000+0  10021-3 0  9992
2 55462  43.0032  80.0631 0001584 271.9821  88.0840 15.02541010 67934
STARLINK-5677           
1 55463U 23015Q   24116.16346870  .00000433  00000+0  47140-4 0  9992
2 55463  43.0031  80.1026 0001083 240.0865 119.9870 15.02538481 67937
STARLINK-5676           
1 55464U 23015R   24116.15126497 -.00001636  00000+0 -10607-3 0  9998
2 55464  43.0043  80.0113 0001450 268.3961  91.6715 15.02534783 67930
STARLINK-5674           
1 55465U 23015S   24115.29037697 -.00000598  00000+0 -29239-4 0  9994
2 55465  43.0023  84.7297 0001424 259.0674 101.0008 15.02523914 67803
STARLINK-5628           
1 55466U 23015T   24115.93850825  .00001879  00000+0  15410-3 0  9998
2 55466  43.0044  80.9920 0001777 268.9114  91.1525 15.02537029 67903
STARLINK-5679           
1 55467U 23015U   24115.29704157  .00001468  00000+0  12371-3 0  9991
2 55467  43.0050  84.7801 0001775 261.8144  98.2497 15.02534456 67800
STARLINK-5672           
1 55468U 23015V   24115.94961039  .00009106  00000+0  68829-3 0  9994
2 55468  43.0044  81.0785 0002076 280.9625  79.0984 15.02534136 67900
STARLINK-5681           
1 55469U 23015W   24115.95293635  .00002695  00000+0  21446-3 0  9996
2 55469  43.0011  81.1000 0001117 246.7614 113.3111 15.02542758 67902
STARLINK-5708           
1 55470U 23015X   24115.94516854  .00011883  00000+0  89320-3 0  9992
2 55470  43.0023  81.0421 0000856 240.7522 119.3235 15.02538654 67907
STARLINK-5711           
1 55471U 23015Y   24115.94294898  .00004771  00000+0  36793-3 0  9998
2 55471  43.0042  81.0250 0001559 266.0079  94.0586 15.02541619 67901
STARLINK-5705           
1 55472U 23015Z   24115.94221289  .00006046  00000+0  46220-3 0  9996
2 55472  43.0034  68.8758 0001463 256.7082 103.3598 15.02543011 68044
STARLINK-5687           
1 55473U 23015AA  24115.92639627  .00038548  00000+0  24435-2 0  9999
2 55473  43.0033  78.3783 0005872 154.8878 205.2253 15.08291893 67938
STARLINK-5689           
1 55474U 23015AB  24115.31453983  .00003250  00000+0  25551-3 0  9995
2 55474  43.0023  97.9033 0001328 259.3124 100.7568 15.02539286 67652
STARLINK-5650           
1 55475U 23015AC  24115.93517179  .00006545  00000+0  49898-3 0  9992
2 55475  43.0039  80.9650 0001629 272.7197  87.3459 15.02548318 67903
STARLINK-5685           
1 55477U 23015AE  24116.20257985  .00001950  00000+0  15941-3 0  9998
2 55477  43.0023  67.3851 0001171 273.9557  86.1152 15.02535883 68085
STARLINK-5691           
1 55478U 23015AF  24116.20147095 -.00001568  00000+0 -10105-3 0  9993
2 55478  43.0036  67.3768 0001436 262.4008  97.6671 15.02527843 68085
STARLINK-5688           
1 55479U 23015AG  24115.94554400  .00005481  00000+0  42038-3 0  9992
2 55479  43.0038  68.8935 0001378 267.9177  92.1507 15.02544501 68046
STARLINK-5690           
1 55480U 23015AH  24115.98465924  .00002756  00000+0  22370-3 0  9999
2 55480  43.0042  93.3985 0002032 277.7770  82.2841 15.01723541 67588
STARLINK-5694           
1 55481U 23015AJ  24116.17431308  .00002829  00000+0  22437-3 0  9996
2 55481  43.0028  93.1731 0001242 260.9801  99.0900 15.02540459 67781
STARLINK-5693           
1 55482U 23015AK  24115.95268001  .00001852  00000+0  15213-3 0  9999
2 55482  43.0027  94.0896 0001539 265.1397  94.9269 15.02534842 67757
STARLINK-5692           
1 55483U 23015AL  24115.36658685 -.00000083  00000+0  89528-5 0  9994
2 55483  43.0027  97.4329 0001534 257.9738 102.0932 15.02536127 67665
STARLINK-5696           
1 55484U 23015AM  24115.95600851  .00000210  00000+0  30636-4 0  9998
2 55484  43.0006  94.1129 0001161 240.3128 119.7599 15.02540209 67750
STARLINK-5695           
1 55485U 23015AN  24116.17097971 -.00003552  00000+0 -24803-3 0  9999
2 55485  43.0026  93.1467 0001618 273.5773  86.4884 15.02526422 67600
STARLINK-5704           
1 55486U 23015AP  24115.35991949 -.00003125  00000+0 -21629-3 0  9996
2 55486  43.0025  97.3363 0001179 255.7842 104.2870 15.02544372 67666
STARLINK-5701           
1 55487U 23015AQ  24116.17209100  .00005835  00000+0  44655-3 0  9991
2 55487  42.9992  93.1522 0001425 240.2022 119.8679 15.02543372 67783
